P/2016 G1 (PANSTARRS),e,10.9711,204.0203,111.1324,2.582504,0.2374884,0.21085347,124.2457,08/27.0/2022,2000,g 14.0,4.0
# From MPEC 2017-D91
P/2016 J1-A (PANSTARRS),e,14.3288,199.8117,47.0133,3.171941,0.1744683,0.22766772,32.6625,08/27.0/2022,2000,g 16.5,4.0
# From MPEC 2017-A77
P/2016 J1-B (PANSTARRS),e,14.3316,199.8165,46.9044,3.171574,0.1744986,0.22751869,32.8061,08/27.0/2022,2000,g 17.0,4.0
# From MPEC 2022-ED3
C/2016 M1 (PANSTARRS),e,90.9012,92.2505,209.9374,359861,0.0000000,0.99999385,0.0000,08/10.5588/2018,2000,g  5.0,4.0
# From MPEC 2022-OB6
C/2016 N4 (MASTER),e,72.6532,353.9901,55.9600,7155,0.0000016,0.99955326,0.0000,09/17.6759/2017,2000,g  8.5,4.0
# From MPEC 2021-P47
C/2016 N6 (PANSTARRS),e,105.8525,298.9391,162.6053,1023,0.0000301,0.99739982,0.0000,07/17.6097/2018,2000,g  7.0,4.0
# From MPC102099
P/2016 P1 (PANSTARRS),e,24.4402,319.5615,270.3314,3.197437,0.1723856,0.28938935,76.2003,08/27.0/2022,2000,g 15.0,4.0
# From MPEC 2022-M21
C/2016 Q2 (PANSTARRS),h,05/12.2814/2021,109.3857,322.3037,84.5525,1.002514,7.081982,2000,6.0,4.0
# From MPC102955
C/2016 Q4 (Kowalski),e,7.2485,271.2966,99.6228,17.00744,0.0140522,0.58289364,23.4547,08/27.0/2022,2000,g  7.0,4.0
# From MPEC 2021-N06
C/2016 R2 (PANSTARRS),e,58.3054,80.5235,33.1005,475.8323,0.0000950,0.99454093,0.0000,05/09.0773/2018,2000,g  7.0,4.0
# From MPEC 2022-K19
P/2016 R4 (Gibbs),e,10.8780,168.2613,174.1134,5.332256,0.0800456,0.47633052,178.1062,08/27.0/2022,2000,g 12.5,4.0
# From MPC105543
P/2016 S1 (PANSTARRS),e,94.7224,227.6337,273.2658,8.276778,0.0413916,0.71019143,82.3543,08/27.0/2022,2000,g 12.0,4.0
# From MPC110082
C/2016 T3 (PANSTARRS),e,22.7135,271.6626,194.5747,129.0597,0.0006722,0.97955694,0.0000,09/06.8768/2017,2000,g 10.5,4.0
# From MPC106345
P/2016 WM48 (Lemmon),e,117.5583,59.9266,36.1282,8.167910,0.0422219,0.78350202,84.8978,08/27.0/2022,2000,g 15.0,4.0
# From MPEC 2021-P47
C/2016 X1 (Lemmon),e,26.4564,256.3557,224.4738,1301,0.0000210,0.99418960,0.0000,04/27.7981/2019,2000,g  6.0,4.0
# From MPC114598
C/2017 AB5 (PANSTARRS),e,32.4618,42.6010,78.2841,2463,0.0000081,0.99626277,0.0000,02/14.4301/2018,2000,g  5.5,4.0
# From MPEC 2022-OB6
C/2017 B3 (LINEAR),h,02/01.7774/2019,54.1584,2.1748,284.8269,1.000556,3.928032,2000,6.0,4.0
# From MPC103847
P/2017 B4 (PANSTARRS),e,20.0584,121.4578,11.0197,4.410520,0.1064068,0.36495152,359.9130,01/05.0/2017,2000,g 14.5,4.0
# From MPEC 2022-OB6
P/2017 D1 (Fuls),e,20.7642,82.1859,7.9570,4.828361,0.0928976,0.43674850,209.5931,08/27.0/2022,2000,g 14.0,4.0
# From MPEC 2022-OB6
P/2017 D4 (PANSTARRS),e,10.5447,264.9408,212.1573,7.550599,0.0475042,0.62872971,103.6603,08/27.0/2022,2000,g 13.0,4.0
# From MPC111769
C/2017 F1 (Lemmon),h,11/28.2320/2017,146.4645,158.7874,64.7195,1.001579,4.499163,2000,10.5,4.0
# From MPC114598
C/2017 F2 (PANSTARRS),h,11/25.7127/2017,42.5557,38.7046,134.9034,1.001891,6.924933,2000,7.5,4.0
# From MPC104794
P/2017 G1 (PANSTARRS),e,4.7819,249.6634,224.3848,7.277198,0.0502062,0.65346899,116.1267,08/27.0/2022,2000,g 13.5,4.0
# From MPC108595
P/2017 G2 (PANSTARRS),e,47.9573,79.8261,105.4435,8.053719,0.0431230,0.64753770,82.1295,08/27.0/2022,2000,g 13.0,4.0
# From MPC115882
C/2017 K1 (PANSTARRS),h,03/17.9267/2018,154.0215,225.7254,4.4267,1.003444,7.284660,2000,7.0,4.0
# From MPEC 2022-QD9
C/2017 K2 (PANSTARRS),h,12/19.6832/2022,87.5623,88.2351,236.1980,1.000799,1.796903,2000,1.5,4.0
# From MPEC 2021-N06
P/2017 K3 (Gasparovic),e,4.2731,354.2907,253.4368,5.584639,0.0746812,0.57931199,143.1030,08/27.0/2022,2000,g 14.5,4.0
# From MPC114598
C/2017 K4 (ATLAS),e,16.6652,298.9094,15.3417,28.69231,0.0064129,0.90727794,10.8489,08/27.0/2022,2000,g 10.0,4.0
# From MPEC 2021-P47
C/2017 K5 (PANSTARRS),h,03/27.3835/2020,82.2466,102.3814,172.0665,1.005328,7.683793,2000,5.0,4.0
# From MPC114599
C/2017 K6 (Jacques),e,57.2224,84.9103,303.8025,1219,0.0000232,0.99836298,0.0000,01/04.0077/2018,2000,g 11.0,4.0
# From MPEC 2022-OB6
C/2017 M4 (ATLAS),h,01/17.9773/2019,105.6427,65.9512,167.6157,1.001312,3.252724,2000,6.0,4.0
# From MPC118841
C/2017 M5 (TOTAS),h,06/04.3569/2018,15.8637,216.2891,92.8569,1.005241,6.003536,2000,6.5,4.0
# From MPEC 2022-OB6
C/2017 O1 (ASASSN),e,39.9862,25.7156,20.8424,377.9937,0.0001341,0.99605609,0.0000,10/15.8972/2017,2000,g 11.0,4.0
# From MPC114599
P/2017 P1 (PANSTARRS),e,7.6901,221.3703,122.6565,7.910883,0.0442962,0.31096322,67.6213,08/27.0/2022,2000,g 10.0,4.0
# From MPC114599
C/2017 P2 (PANSTARRS),e,50.0484,165.4580,132.5103,2561,0.0000076,0.99903354,0.0000,12/05.9569/2017,2000,g 10.0,4.0
# From MPC108595
C/2017 S2 (PANSTARRS),e,12.6688,62.3197,306.1365,20.65417,0.0105001,0.82496725,19.1332,08/27.0/2022,2000,g 13.0,4.0
# From MPC114599
C/2017 S3 (PANSTARRS),h,08/16.5701/2018,99.2092,171.3148,255.8306,1.000090,0.205606,2000,12.9,4.0
# From MPC109591
C/2017 S6 (Catalina),h,02/26.1519/2018,152.8653,131.1042,134.9952,1.000914,1.551111,2000,12.5,4.0
# From MPEC 2022-OB6
P/2017 S8 (PANSTARRS),e,29.8486,191.5192,254.8475,2.777742,0.2128954,0.39074234,355.9152,08/27.0/2022,2000,g 16.0,4.0
# From MPC107050
P/2017 S9 (PANSTARRS),e,14.1427,146.2247,237.6025,3.155758,0.1758120,0.30564588,327.5954,08/27.0/2022,2000,g 17.0,4.0
# From MPC114600
C/2017 T1 (Heinze),e,96.9030,102.5271,97.0269,10779,0.0000009,0.99994565,0.0000,02/20.6490/2018,2000,g 14.5,4.0
# From MPEC 2021-Y10
C/2017 T2 (PANSTARRS),e,57.2514,64.3991,92.9506,1691,0.0000142,0.99904512,0.0000,05/04.7947/2020,2000,g  5.0,4.0
# From MPC114600
C/2017 T3 (ATLAS),e,88.2219,230.2017,246.8103,1207,0.0000235,0.99931709,0.0000,07/19.0360/2018,2000,g 10.0,4.0
# From MPC115882
P/2017 TW13 (Lemmon),e,44.8495,322.2752,119.9137,7.136428,0.0516991,0.71007778,78.9691,08/27.0/2022,2000,g 15.0,2.0
# From MPC114600
C/2017 U2 (Fuls),e,95.3927,149.7147,147.8957,2718,0.0000070,0.99752836,0.0000,08/28.2010/2017,2000,g  9.0,4.0
# From MPEC 2022-K19
P/2017 U3 (PANSTARRS),e,15.9187,165.1103,296.3558,4.925878,0.0901527,0.09942307,111.1207,08/27.0/2022,2000,g 11.0,4.0
# From MPEC 2021-P47
C/2017 U4 (PANSTARRS),e,158.2043,245.9170,158.9750,2030532,0.0000000,0.99999620,0.0000,09/21.9535/2018,2000,g  7.0,4.0
# From MPC114600
C/2017 U5 (PANSTARRS),e,18.9784,163.0862,261.9951,16.90262,0.0141832,0.74468631,24.2758,08/27.0/2022,2000,g 12.0,4.0
# From MPEC 2022-PB4
C/2017 U7 (PANSTARRS),h,09/14.9661/2019,142.6063,276.2580,326.3994,1.001237,6.427257,2000,8.3,2.0
# From MPC114600
C/2017 W2 (Leonard),e,98.2066,312.8171,168.8864,13.61379,0.0196216,0.71020270,34.5471,08/27.0/2022,2000,g 11.0,4.0
# From MPC114601
P/2017 W3 (Gibbs),e,18.1672,210.2264,327.8316,7.834137,0.0449487,0.50642060,73.7997,08/27.0/2022,2000,g 10.5,4.0
# From MPEC 2021-R75
C/2017 X1 (PANSTARRS),e,31.3286,251.1477,283.1783,31.06227,0.0056932,0.84977996,8.7383,08/27.0/2022,2000,g 10.0,4.0
# From MPEC 2022-N37
C/2017 Y1 (PANSTARRS),e,55.2530,307.4898,134.2413,1817,0.0000127,0.99796253,0.0000,08/31.7292/2017,2000,g 11.5,4.0
# From MPEC 2022-QD9
C/2017 Y2 (PANSTARRS),h,11/05.0378/2020,128.4296,66.0039,147.9319,1.001251,4.632979,2000,15.0,4.0
# From MPC111770
P/2017 Y3 (Leonard),e,27.5598,153.8475,67.5976,9.827243,0.0319931,0.86956211,53.1062,08/27.0/2022,2000,g 16.5,4.0
# From MPC114601
C/2018 A1 (PANSTARRS),e,53.6094,336.6525,96.1828,25.11243,0.0078320,0.90415718,13.8665,08/27.0/2022,2000,g 12.5,4.0
# From MPEC 2021-P47
C/2018 A3 (ATLAS),e,139.5363,194.2925,86.3527,381.7748,0.0001321,0.99141542,0.0000,01/11.3584/2019,2000,g  8.5,4.0
# From MPC114601
C/2018 A4 (PANSTARRS),e,3.1499,97.5936,355.9619,12.18405,0.0231748,0.80368324,36.1739,08/27.0/2022,2000,g 14.0,4.0
# From MPC109147
P/2018 A5 (PANSTARRS),e,23.6019,87.7974,359.4914,5.629545,0.0737894,0.52311119,132.6957,08/27.0/2022,2000,g 15.0,4.0
# From MPEC 2022-C56
C/2018 A6 (Gibbs),e,77.0559,340.3808,264.3702,15.07458,0.0168398,0.79982416,19.2309,08/27.0/2022,2000,g  9.0,4.0
# From MPEC 2022-O08
C/2018 B1 (Lemmon),e,162.4189,133.1915,68.3840,5461,0.0000024,0.99906087,0.0000,03/27.8671/2018,2000,g  9.0,4.0
# From MPC114601
P/2018 C1 (Lemmon-Read),e,5.1131,270.3452,235.6991,5.653013,0.0733304,0.53206089,120.6509,08/27.0/2022,2000,g 13.5,4.0
# From MPC114601
C/2018 C2 (Lemmon),h,05/31.5757/2018,34.4631,91.2246,134.0467,1.000128,1.960828,2000,13.0,4.0
# From MPEC 2022-M88
C/2018 DO4 (Lemmon),e,160.4447,251.4258,176.2875,25.37556,0.0077105,0.90493951,8.5265,08/27.0/2022,2000,g 11.0,4.0
# From MPC114602
C/2018 E1 (ATLAS),e,72.5094,146.8515,299.2998,53.85616,0.0024937,0.94997804,3.9702,08/27.0/2022,2000,g 10.5,4.0
# From MPEC 2022-N37
C/2018 E2 (Barros),e,97.6339,67.1597,277.4451,2942,0.0000062,0.99866786,0.0000,12/23.7814/2017,2000,g 10.5,4.0
# From MPC114602
C/2018 EN4 (NEOWISE),e,81.9250,136.1281,35.0389,17.94578,0.0129646,0.91857724,20.0485,08/27.0/2022,2000,g 15.0,4.0
# From MPC114602
C/2018 EF9 (Lemmon),e,84.6162,172.5532,72.6287,467.4980,0.0000975,0.99666144,0.0000,05/21.5830/2018,2000,g 18.0,2.0
# From MPEC 2021-R75
C/2018 F1 (Grauer),e,46.0771,177.2756,71.5993,247.6536,0.0002529,0.98790011,0.0000,12/12.4251/2018,2000,g 11.5,4.0
# From MPC110084
C/2018 F3 (Johnson),p,08/15.2314/2017,105.5348,293.0113,2.483172,173.0311,2000,13.0,4.0
# From MPEC 2021-W31
C/2018 F4 (PANSTARRS),h,12/03.5467/2019,78.0845,26.5156,263.2266,1.000137,3.442704,2000,11.0,6.0
# From MPEC 2021-Y10
C/2018 F4-A,h,12/03.5349/2019,78.0847,26.5158,263.2234,1.000085,3.442573,2000,11.0,6.0
# From MPEC 2021-W31
C/2018 F4-B,h,12/03.4711/2019,78.0855,26.5154,263.2084,1.000181,3.442355,2000,11.0,6.0
# From MPC114602
P/2018 H2 (PANSTARRS),e,7.4068,68.0526,120.0114,4.384063,0.1073715,0.54186237,180.3893,08/27.0/2022,2000,g 16.6,2.0
# From MPC114602
C/2018 K1 (Weiland),e,164.1901,260.1513,325.2247,30.18753,0.0059424,0.93764880,9.5223,08/27.0/2022,2000,g 14.9,4.0
# From MPEC 2021-R75
C/2018 KJ3 (Lemmon),e,136.6845,91.6407,217.6759,961.9090,0.0000330,0.99622789,0.0000,09/09.9679/2019,2000,g 12.2,2.0
# From MPC114602
P/2018 L1 (PANSTARRS),e,10.5822,268.6217,18.0367,3.653183,0.1411552,0.48205388,195.3548,08/27.0/2022,2000,g 15.0,4.0
# From MPEC 2021-P47
